FLOCK 3P-27             
1 41963U 17008R   18116.90250676  .00002546  00000-0  10715-3 0  9995
2 41963  97.4537 181.9743 0009462 161.1696 198.9893 15.24265533 66133
FLOCK 3P-25             
1 41964U 17008S   18116.89219195  .00002055  00000-0  87217-4 0  9992
2 41964  97.4537 181.9796 0009155 160.5175 199.6414 15.24204678 66114
FLOCK 3P-4              
1 41965U 17008T   18116.88585821  .00001578  00000-0  67675-4 0  9999
2 41965  97.4539 182.0028 0009014 161.4481 198.7087 15.24207892 66219
FLOCK 3P-2              
1 41966U 17008U   18116.75551599  .00001942  00000-0  82559-4 0  9994
2 41966  97.4543 181.8827 0008980 160.0529 200.1061 15.24215135 66116
FLOCK 3P-1              
1 41967U 17008V   18116.85947128  .00002535  00000-0  10719-3 0  9990
2 41967  97.4542 181.9036 0009091 162.0914 198.0646 15.24116012 66122
FLOCK 3P-3              
1 41968U 17008W   18116.82549826  .00001227  00000-0  53284-4 0  9993
2 41968  97.4538 181.9260 0008967 160.2978 199.8607 15.24197798 66203
FLOCK 3P-6              
1 41969U 17008X   18116.88410028  .00001875  00000-0  79837-4 0  9992
2 41969  97.4542 182.0171 0008870 159.5683 200.5911 15.24212899 66128
FLOCK 3P-7              
1 41970U 17008Y   18116.86010701  .00003063  00000-0  12780-3 0  9990
2 41970  97.4542 182.0523 0009100 163.3289 196.8250 15.24408076 66131
FLOCK 3P-5              
1 41971U 17008Z   18116.88132486  .00001536  00000-0  65930-4 0  9997
2 41971  97.4544 182.0337 0008824 162.4397 197.7147 15.24214925 66064
FLOCK 3P-12             
1 41972U 17008AA  18116.87938773  .00001660  00000-0  71018-4 0  9992
2 41972  97.4542 182.0301 0008606 162.8664 197.2865 15.24215205 66214
FLOCK 3P-9              
1 41973U 17008AB  18116.88319545  .00001817  00000-0  77466-4 0  9991
2 41973  97.4545 182.0336 0008849 160.6569 199.5006 15.24210200 66217
FLOCK 3P-10             
1 41974U 17008AC  18116.80366961  .00002656  00000-0  11176-3 0  9995
2 41974  97.4547 181.9930 0008583 162.4861 197.6674 15.24239812 66094
FLOCK 3P-11             
1 41975U 17008AD  18116.88501380  .00002004  00000-0  85109-4 0  9995
2 41975  97.4544 182.0308 0008987 161.1075 199.0497 15.24209642 66103
FLOCK 3P-60             
1 41976U 17008AE  18116.92319703  .00001330  00000-0  57502-4 0  9994
2 41976  97.4548 182.1464 0008546 162.3427 197.8109 15.24199926 65475
FLOCK 3P-58             
1 41977U 17008AF  18116.94615053  .00001890  00000-0  80452-4 0  9995
2 41977  97.4543 182.0985 0008570 161.8695 198.2849 15.24213951 66300
FLOCK 3P-57             
1 41978U 17008AG  18116.80658794  .00002219  00000-0  93938-4 0  9999
2 41978  97.4545 181.9803 0008703 161.0431 199.1132 15.24219582 66129
FLOCK 3P-75             
1 41979U 17008AH  18116.87069285  .00001535  00000-0  65907-4 0  9993
2 41979  97.4566 182.1785 0008758 164.3236 195.8274 15.24210512 66285
FLOCK 3P-70             
1 41980U 17008AJ  18116.67189683  .00001366  00000-0  58994-4 0  9998
2 41980  97.4567 181.9897 0008708 164.1434 196.0078 15.24207650 66107
FLOCK 3P-73             
1 41981U 17008AK  18116.94473889  .00002068  00000-0  87749-4 0  9993
2 41981  97.4568 182.2400 0009033 164.5118 195.6397 15.24213076 66274
FLOCK 3P-88             
1 41982U 17008AL  18116.86318819  .00002549  00000-0  10712-3 0  9995
2 41982  97.4564 182.1774 0008852 164.2741 195.8773 15.24321962 65230
FLOCK 3P-85             
1 41983U 17008AM  18116.91095043  .00002386  00000-0  10035-3 0  9990
2 41983  97.4567 182.2804 0008679 167.4351 192.7105 15.24355884 66144
FLOCK 3P-79             
1 41984U 17008AN  18116.91824532  .00001261  00000-0  54686-4 0  9996
2 41984  97.4567 182.2704 0008405 165.4465 194.7016 15.24201351 66147
FLOCK 3P-86             
1 41985U 17008AP  18116.91998470  .00001256  00000-0  54480-4 0  9996
2 41985  97.4568 182.2621 0008397 164.8312 195.3179 15.24197873 66130
FLOCK 3P-36             
1 41986U 17008AQ  18116.92159974  .00001186  00000-0  51620-4 0  9991
2 41986  97.4551 182.1597 0008253 162.1921 197.9607 15.24199321 65629
FLOCK 3P-30             
1 41987U 17008AR  18116.91237359  .00001222  00000-0  53054-4 0  9999
2 41987  97.4550 182.1710 0008038 163.8560 196.2935 15.24207976 66098
FLOCK 3P-34             
1 41988U 17008AS  18116.72808374  .00001312  00000-0  56777-4 0  9995
2 41988  97.4547 181.9354 0008350 160.7660 199.3894 15.24200916 65599
FLOCK 3P-35             
1 41989U 17008AT  18116.79745321  .00001365  00000-0  58934-4 0  9990
2 41989  97.4545 181.9913 0008474 160.8646 199.2911 15.24199583 65609
FLOCK 3P-33             
1 41990U 17008AU  18116.79120045  .00001413  00000-0  60906-4 0  9998
2 41990  97.4546 182.0093 0008122 161.1595 198.9945 15.24200817 65606
FLOCK 3P-49             
1 42001U 17008BF  18116.90949303  .00001602  00000-0  68643-4 0  9997
2 42001  97.4547 182.1634 0008207 179.1944 180.9308 15.24213206 66144
FLOCK 3P-67             
1 42002U 17008BG  18116.82941717  .00002511  00000-0  10510-3 0  9999
2 42002  97.4544 182.1050 0008206 178.9656 181.1600 15.24477860 66292
FLOCK 3P-68             
1 42003U 17008BH  18116.78470154  .00001311  00000-0  56707-4 0  9993
2 42003  97.4544 182.0062 0008343 177.2264 182.9021 15.24206635 65929
FLOCK 3P-41             
1 42004U 17008BJ  18116.90549360  .00002492  00000-0  10501-3 0  9996
2 42004  97.4544 182.1447 0008277 179.2902 180.8349 15.24250577 66144
FLOCK 3P-45             
1 42005U 17008BK  18116.88950953  .00002547  00000-0  10649-3 0  9992
2 42005  97.4545 182.1773 0008089 179.8089 180.3153 15.24497139 66304
FLOCK 3P-48             
1 42006U 17008BL  18116.90788224  .00001274  00000-0  55214-4 0  9990
2 42006  97.4550 182.1686 0007915 179.5314 180.5932 15.24210021 66084
FLOCK 3P-43             
1 42007U 17008BM  18116.85749388  .00002478  00000-0  10544-3 0  9996
2 42007  97.4552 182.0713 0007926 180.2576 179.8658 15.23926079 66293
FLOCK 3P-42             
1 42008U 17008BN  18116.70905782  .00001464  00000-0  63001-4 0  9994
2 42008  97.4543 181.9455 0007868 179.8604 180.2637 15.24212697 66193
FLOCK 3P-61             
1 42009U 17008BP  18116.90518569  .00001647  00000-0  70498-4 0  9991
2 42009  97.4544 182.1521 0007801 180.9775 179.1449 15.24216351 66279
FLOCK 3P-40             
1 42010U 17008BQ  18116.89772309  .00001182  00000-0  51453-4 0  9999
2 42010  97.4538 182.1289 0007599 183.0442 177.0750 15.24199057 65537
FLOCK 3P-16             
1 42011U 17008BR  18116.88795997  .00001972  00000-0  83831-4 0  9999
2 42011  97.4539 182.1451 0007331 182.3813 177.7390 15.24211139 65474
FLOCK 3P-14             
1 42012U 17008BS  18116.81925442  .00002107  00000-0  89230-4 0  9993
2 42012  97.4552 182.1196 0007616 184.5768 175.5401 15.24260931 66086
FLOCK 3P-53             
1 42013U 17008BT  18116.89063209  .00002518  00000-0  10603-3 0  9999
2 42013  97.4537 182.1214 0007422 182.8614 177.2582 15.24272708 66092
FLOCK 3P-54             
1 42014U 17008BU  18116.76320051  .00002069  00000-0  87823-4 0  9997
2 42014  97.4541 182.0110 0007267 183.9096 176.2086 15.24206465 66281
FLOCK 3P-23             
1 42018U 17008BY  18116.89304423  .00001809  00000-0  77134-4 0  9995
2 42018  97.4536 181.9711 0009336 160.0238 200.1366 15.24212492 65067
FLOCK 3P-76             
1 42019U 17008BZ  18116.72939275  .00001448  00000-0  62365-4 0  9996
2 42019  97.4571 182.0776 0008798 165.3330 194.8164 15.24198505 66101
FLOCK 3P-69             
1 42020U 17008CA  18116.72759836  .00001538  00000-0  66025-4 0  9998
2 42020  97.4569 182.0782 0008725 164.0221 196.1293 15.24203674 64999
FLOCK 3P-84             
1 42021U 17008CB  18116.60534215  .00001374  00000-0  59293-4 0  9995
2 42021  97.4565 181.9098 0008960 165.3438 194.8060 15.24212265 66095
FLOCK 3P-59             
1 42022U 17008CC  18116.92351406  .00002583  00000-0  10822-3 0  9997
2 42022  97.4543 182.1309 0008527 164.1055 196.0452 15.24419083 65164
FLOCK 3P-32             
1 42023U 17008CD  18116.87299632  .00001627  00000-0  69651-4 0  9997
2 42023  97.4544 182.0505 0008509 160.5848 199.5715 15.24215438 66296
FLOCK 3P-71             
1 42024U 17008CE  18116.82163280  .00002942  00000-0  12303-3 0  9994
2 42024  97.4561 182.1048 0008745 167.3473 192.7986 15.24362753 65152
FLOCK 3P-77             
1 42025U 17008CF  18116.79594387  .00001745  00000-0  74530-4 0  9998
2 42025  97.4568 182.1271 0008670 165.7302 194.4182 15.24206677 66125
FLOCK 3P-80             
1 42026U 17008CG  18116.83716517  .00001291  00000-0  55859-4 0  9994
2 42026  97.4566 182.2172 0008291 165.7503 194.3969 15.24245878 64279
FLOCK 3P-66             
1 42027U 17008CH  18116.78388516  .00001319  00000-0  57055-4 0  9994
2 42027  97.4546 182.0244 0008340 176.7232 183.4061 15.24204529 66230
FLOCK 3P-65             
1 42028U 17008CJ  18116.91336883  .00001174  00000-0  51095-4 0  9997
2 42028  97.4547 182.1578 0008224 176.6253 183.5042 15.24207412 66151
FLOCK 3P-50             
1 42029U 17008CK  18116.64810502  .00001253  00000-0  54369-4 0  9998
2 42029  97.4551 181.9137 0007977 179.1002 181.0251 15.24206503 65434
FLOCK 3P-52             
1 42030U 17008CL  18116.78024137  .00001324  00000-0  57243-4 0  9999
2 42030  97.4547 182.0232 0008054 178.6274 181.4986 15.24208747 66220
FLOCK 3P-46             
1 42031U 17008CM  18116.90684610  .00001168  00000-0  50873-4 0  9990
2 42031  97.4542 182.1452 0007982 178.7252 181.4007 15.24211341 66304
FLOCK 3P-47             
1 42032U 17008CN  18116.90866210  .00001243  00000-0  53943-4 0  9994
2 42032  97.4542 182.1406 0007898 179.4714 180.6533 15.24206785 66122
FLOCK 3P-44             
1 42033U 17008CP  18116.91869830  .00000984  00000-0  43663-4 0  9996
2 42033  97.4550 182.1480 0007945 183.7072 176.4107 15.23917147 64872
FLOCK 3P-64             
1 42034U 17008CQ  18116.70543972  .00001280  00000-0  55475-4 0  9994
2 42034  97.4541 181.9449 0007671 182.8635 177.2560 15.24193422 66266
